CCSDS_OMM_VERS = 2.0
CREATION_DATE  = 
ORIGINATOR     = 

OBJECT_NAME    = STARLINK-35703
OBJECT_ID      = 2025-288M
CENTER_NAME    = EARTH
REF_FRAME      = TEME
TIME_SYSTEM    = UTC
MEAN_ELEMENT_THEORY = SGP/SGP4

EPOCH          = 2026-01-05T14:00:03.000384
MEAN_MOTION    = 15.42982506
ECCENTRICITY   = .00010069
INCLINATION    = 43.0011
RA_OF_ASC_NODE = 24.3587
ARG_OF_PERICENTER = 282.7544
MEAN_ANOMALY   = 89.7733

EPHEMERIS_TYPE = 0
CLASSIFICATION_TYPE = U
NORAD_CAT_ID   = 66970
ELEMENT_SET_NO = 999
REV_AT_EPOCH   = 566
BSTAR          = -.55889406E-1
MEAN_MOTION_DOT = -.22566E-1
MEAN_MOTION_DDOT = 0

CCSDS_OMM_VERS = 2.0
CREATION_DATE  = 
ORIGINATOR     = 

OBJECT_NAME    = STARLINK-35678
OBJECT_ID      = 2025-288N
CENTER_NAME    = EARTH
REF_FRAME      = TEME
TIME_SYSTEM    = UTC
MEAN_ELEMENT_THEORY = SGP/SGP4

EPOCH          = 2026-01-05T09:16:22.881216
MEAN_MOTION    = 15.50675384
ECCENTRICITY   = .00024191
INCLINATION    = 43.0008
RA_OF_ASC_NODE = 25.4896
ARG_OF_PERICENTER = 259.9040
MEAN_ANOMALY   = 100.1547

EPHEMERIS_TYPE = 0
CLASSIFICATION_TYPE = U
NORAD_CAT_ID   = 66971
ELEMENT_SET_NO = 999
REV_AT_EPOCH   = 555
BSTAR          = .1962038E-2
MEAN_MOTION_DOT = .116901E-2
MEAN_MOTION_DDOT = 0

CCSDS_OMM_VERS = 2.0
CREATION_DATE  = 
ORIGINATOR     = 

OBJECT_NAME    = STARLINK-34846
OBJECT_ID      = 2025-288P
CENTER_NAME    = EARTH
REF_FRAME      = TEME
TIME_SYSTEM    = UTC
MEAN_ELEMENT_THEORY = SGP/SGP4

EPOCH          = 2026-01-05T14:00:03.000384
MEAN_MOTION    = 15.40962389
ECCENTRICITY   = .0001407
INCLINATION    = 43.0008
RA_OF_ASC_NODE = 24.4154
ARG_OF_PERICENTER = 261.5171
MEAN_ANOMALY   = 87.9142

EPHEMERIS_TYPE = 0
CLASSIFICATION_TYPE = U
NORAD_CAT_ID   = 66972
ELEMENT_SET_NO = 999
REV_AT_EPOCH   = 566
BSTAR          = -.11342067E-1
MEAN_MOTION_DOT = -.451058E-2
MEAN_MOTION_DDOT = 0

CCSDS_OMM_VERS = 2.0
CREATION_DATE  = 
ORIGINATOR     = 

OBJECT_NAME    = STARLINK-35778
OBJECT_ID      = 2025-288Q
CENTER_NAME    = EARTH
REF_FRAME      = TEME
TIME_SYSTEM    = UTC
MEAN_ELEMENT_THEORY = SGP/SGP4

EPOCH          = 2026-01-05T08:24:51.321600
MEAN_MOTION    = 15.40724652
ECCENTRICITY   = .00011965
INCLINATION    = 43.0027
RA_OF_ASC_NODE = 26.0863
ARG_OF_PERICENTER = 266.7245
MEAN_ANOMALY   = 93.3474

EPHEMERIS_TYPE = 0
CLASSIFICATION_TYPE = U
NORAD_CAT_ID   = 66973
ELEMENT_SET_NO = 999
REV_AT_EPOCH   = 554
BSTAR          = .23960437E-2
MEAN_MOTION_DOT = .101205E-2
MEAN_MOTION_DDOT = 0

CCSDS_OMM_VERS = 2.0
CREATION_DATE  = 
ORIGINATOR     = 

OBJECT_NAME    = STARLINK-35780
OBJECT_ID      = 2025-288R
CENTER_NAME    = EARTH
REF_FRAME      = TEME
TIME_SYSTEM    = UTC
MEAN_ELEMENT_THEORY = SGP/SGP4

EPOCH          = 2026-01-05T14:00:03.000384
MEAN_MOTION    = 15.40653486
ECCENTRICITY   = .00013345
INCLINATION    = 43.0004
RA_OF_ASC_NODE = 24.6872
ARG_OF_PERICENTER = 273.1563
MEAN_ANOMALY   = 324.4027

EPHEMERIS_TYPE = 0
CLASSIFICATION_TYPE = U
NORAD_CAT_ID   = 66974
ELEMENT_SET_NO = 999
REV_AT_EPOCH   = 566
BSTAR          = .17973282E-2
MEAN_MOTION_DOT = .75404E-3
MEAN_MOTION_DDOT = 0

CCSDS_OMM_VERS = 2.0
CREATION_DATE  = 
ORIGINATOR     = 

OBJECT_NAME    = STARLINK-35777
OBJECT_ID      = 2025-288S
CENTER_NAME    = EARTH
REF_FRAME      = TEME
TIME_SYSTEM    = UTC
MEAN_ELEMENT_THEORY = SGP/SGP4

EPOCH          = 2026-01-05T14:00:03.000384
MEAN_MOTION    = 15.40712858
ECCENTRICITY   = .00011527
INCLINATION    = 43.0002
RA_OF_ASC_NODE = 24.6547
ARG_OF_PERICENTER = 263.2788
MEAN_ANOMALY   = 346.7702

EPHEMERIS_TYPE = 0
CLASSIFICATION_TYPE = U
NORAD_CAT_ID   = 66975
ELEMENT_SET_NO = 999
REV_AT_EPOCH   = 566
BSTAR          = -.11008917E-2
MEAN_MOTION_DOT = -.46032E-3
MEAN_MOTION_DDOT = 0

CCSDS_OMM_VERS = 2.0
CREATION_DATE  = 
ORIGINATOR     = 

OBJECT_NAME    = STARLINK-35772
OBJECT_ID      = 2025-288T
CENTER_NAME    = EARTH
REF_FRAME      = TEME
TIME_SYSTEM    = UTC
MEAN_ELEMENT_THEORY = SGP/SGP4

EPOCH          = 2026-01-05T11:45:22.458528
MEAN_MOTION    = 15.40758044
ECCENTRICITY   = .00017091
INCLINATION    = 43.0015
RA_OF_ASC_NODE = 27.1860
ARG_OF_PERICENTER = 274.8650
MEAN_ANOMALY   = 85.2011

EPHEMERIS_TYPE = 0
CLASSIFICATION_TYPE = U
NORAD_CAT_ID   = 66976
ELEMENT_SET_NO = 999
REV_AT_EPOCH   = 554
BSTAR          = .22686464E-2
MEAN_MOTION_DOT = .95847E-3
MEAN_MOTION_DDOT = 0

CCSDS_OMM_VERS = 2.0
CREATION_DATE  = 
ORIGINATOR     = 

OBJECT_NAME    = STARLINK-35770
OBJECT_ID      = 2025-288U
CENTER_NAME    = EARTH
REF_FRAME      = TEME
TIME_SYSTEM    = UTC
MEAN_ELEMENT_THEORY = SGP/SGP4

EPOCH          = 2026-01-01T14:00:43.463232
MEAN_MOTION    = 15.50604727
ECCENTRICITY   = .000113
INCLINATION    = 43.0009
RA_OF_ASC_NODE = 47.6983
ARG_OF_PERICENTER = 275.3451
MEAN_ANOMALY   = 84.7280

EPHEMERIS_TYPE = 0
CLASSIFICATION_TYPE = U
NORAD_CAT_ID   = 66977
ELEMENT_SET_NO = 999
REV_AT_EPOCH   = 496
BSTAR          = .17973E-2
MEAN_MOTION_DOT = .106642E-2
MEAN_MOTION_DDOT = 0

CCSDS_OMM_VERS = 2.0
CREATION_DATE  = 
ORIGINATOR     = 

OBJECT_NAME    = STARLINK-35787
OBJECT_ID      = 2025-288V
CENTER_NAME    = EARTH
REF_FRAME      = TEME
TIME_SYSTEM    = UTC
MEAN_ELEMENT_THEORY = SGP/SGP4

EPOCH          = 2026-01-05T10:01:26.035680
MEAN_MOTION    = 15.40726322
ECCENTRICITY   = .00017713
INCLINATION    = 43.0015
RA_OF_ASC_NODE = 25.7290
ARG_OF_PERICENTER = 267.5070
MEAN_ANOMALY   = 92.5584

EPHEMERIS_TYPE = 0
CLASSIFICATION_TYPE = U
NORAD_CAT_ID   = 66978
ELEMENT_SET_NO = 999
REV_AT_EPOCH   = 555
BSTAR          = .19335041E-2
MEAN_MOTION_DOT = .81402E-3
MEAN_MOTION_DDOT = 0

CCSDS_OMM_VERS = 2.0
CREATION_DATE  = 
ORIGINATOR     = 

OBJECT_NAME    = STARLINK-36107
OBJECT_ID      = 2025-288W
CENTER_NAME    = EARTH
REF_FRAME      = TEME
TIME_SYSTEM    = UTC
MEAN_ELEMENT_THEORY = SGP/SGP4

EPOCH          = 2026-01-05T10:44:12.006816
MEAN_MOTION    = 15.50624826
ECCENTRICITY   = .00017122
INCLINATION    = 43.0018
RA_OF_ASC_NODE = 25.0855
ARG_OF_PERICENTER = 246.3254
MEAN_ANOMALY   = 113.7427

EPHEMERIS_TYPE = 0
CLASSIFICATION_TYPE = U
NORAD_CAT_ID   = 66979
ELEMENT_SET_NO = 999
REV_AT_EPOCH   = 556
BSTAR          = .20973974E-2
MEAN_MOTION_DOT = .124889E-2
MEAN_MOTION_DDOT = 0

CCSDS_OMM_VERS = 2.0
CREATION_DATE  = 
ORIGINATOR     = 

OBJECT_NAME    = STARLINK-36086
OBJECT_ID      = 2025-288X
CENTER_NAME    = EARTH
REF_FRAME      = TEME
TIME_SYSTEM    = UTC
MEAN_ELEMENT_THEORY = SGP/SGP4

EPOCH          = 2026-01-05T14:00:03.000384
MEAN_MOTION    = 15.40703440
ECCENTRICITY   = .00007204
INCLINATION    = 43.0001
RA_OF_ASC_NODE = 24.5934
ARG_OF_PERICENTER = 260.4506
MEAN_ANOMALY   = 14.4755

EPHEMERIS_TYPE = 0
CLASSIFICATION_TYPE = U
NORAD_CAT_ID   = 66980
ELEMENT_SET_NO = 999
REV_AT_EPOCH   = 566
BSTAR          = -.61945686E-3
MEAN_MOTION_DOT = -.26093E-3
MEAN_MOTION_DDOT = 0

CCSDS_OMM_VERS = 2.0
CREATION_DATE  = 
ORIGINATOR     = 

OBJECT_NAME    = STARLINK-36142
OBJECT_ID      = 2025-288Y
CENTER_NAME    = EARTH
REF_FRAME      = TEME
TIME_SYSTEM    = UTC
MEAN_ELEMENT_THEORY = SGP/SGP4

EPOCH          = 2026-01-05T14:00:03.000384
MEAN_MOTION    = 15.40716760
ECCENTRICITY   = .00012791
INCLINATION    = 43.0002
RA_OF_ASC_NODE = 24.5335
ARG_OF_PERICENTER = 262.9105
MEAN_ANOMALY   = 36.8789

EPHEMERIS_TYPE = 0
CLASSIFICATION_TYPE = U
NORAD_CAT_ID   = 66981
ELEMENT_SET_NO = 999
REV_AT_EPOCH   = 566
BSTAR          = -.87517023E-3
MEAN_MOTION_DOT = -.36706E-3
MEAN_MOTION_DDOT = 0

CCSDS_OMM_VERS = 2.0
CREATION_DATE  = 
ORIGINATOR     = 

OBJECT_NAME    = STARLINK-36113
OBJECT_ID      = 2025-288Z
CENTER_NAME    = EARTH
REF_FRAME      = TEME
TIME_SYSTEM    = UTC
MEAN_ELEMENT_THEORY = SGP/SGP4

EPOCH          = 2026-01-05T14:00:03.000384
MEAN_MOTION    = 15.43193530
ECCENTRICITY   = .00012954
INCLINATION    = 43.0004
RA_OF_ASC_NODE = 24.3296
ARG_OF_PERICENTER = 267.5780
MEAN_ANOMALY   = 116.7423

EPHEMERIS_TYPE = 0
CLASSIFICATION_TYPE = U
NORAD_CAT_ID   = 66982
ELEMENT_SET_NO = 999
REV_AT_EPOCH   = 566
BSTAR          = -.47883486E-1
MEAN_MOTION_DOT = -.1944372E-1
MEAN_MOTION_DDOT = 0

CCSDS_OMM_VERS = 2.0
CREATION_DATE  = 
ORIGINATOR     = 

OBJECT_NAME    = STARLINK-36145
OBJECT_ID      = 2025-288AA
CENTER_NAME    = EARTH
REF_FRAME      = TEME
TIME_SYSTEM    = UTC
MEAN_ELEMENT_THEORY = SGP/SGP4

EPOCH          = 2026-01-05T09:09:00.133920
MEAN_MOTION    = 15.50599767
ECCENTRICITY   = .00088644
INCLINATION    = 43.0013
RA_OF_ASC_NODE = 25.4476
ARG_OF_PERICENTER = 266.7590
MEAN_ANOMALY   = 93.2256

EPHEMERIS_TYPE = 0
CLASSIFICATION_TYPE = U
NORAD_CAT_ID   = 66983
ELEMENT_SET_NO = 999
REV_AT_EPOCH   = 555
BSTAR          = .24191473E-2
MEAN_MOTION_DOT = .144519E-2
MEAN_MOTION_DDOT = 0

CCSDS_OMM_VERS = 2.0
CREATION_DATE  = 
ORIGINATOR     = 

OBJECT_NAME    = STARLINK-35591
OBJECT_ID      = 2025-288AB
CENTER_NAME    = EARTH
REF_FRAME      = TEME
TIME_SYSTEM    = UTC
MEAN_ELEMENT_THEORY = SGP/SGP4

EPOCH          = 2026-01-05T14:00:03.000384
MEAN_MOTION    = 15.46122337
ECCENTRICITY   = .00016224
INCLINATION    = 43.0007
RA_OF_ASC_NODE = 24.2904
ARG_OF_PERICENTER = 280.4967
MEAN_ANOMALY   = 119.4502

EPHEMERIS_TYPE = 0
CLASSIFICATION_TYPE = U
NORAD_CAT_ID   = 66984
ELEMENT_SET_NO = 999
REV_AT_EPOCH   = 566
BSTAR          = -.45218333E-1
MEAN_MOTION_DOT = -.202174E-1
MEAN_MOTION_DDOT = 0

